STARLINK-30358          
1 57879U 23144R   26067.98805295 -.00003016  00000+0 -10013-3 0  9996
2 57879  43.0019 288.8588 0001714 277.1057  82.9600 15.27573323137536
XCUBE-1                 
1 62400U 24247Z   26068.48297321  .00009773  00000+0  36224-3 0  9994
2 62400  44.9938 117.7807 0005235 331.1499  28.9094 15.27910558 67702
